[{"OBJECT_NAME":"STARLINK-32876","OBJECT_ID":"2025-043V","EPOCH":"2026-03-09T04:56:56.091264","MEAN_MOTION":15.27605565,"ECCENTRICITY":0.00022536,"INCLINATION":43.0031,"RA_OF_ASC_NODE":18.5061,"ARG_OF_PERICENTER":243.8999,"MEAN_ANOMALY":116.1621,"EPHEMERIS_TYPE":0,"CLASSIFICATION_TYPE":"U","NORAD_CAT_ID":63151,"ELEMENT_SET_NO":999,"REV_AT_EPOCH":5729,"BSTAR":0.0012931379,"MEAN_MOTION_DOT":0.00035523,"MEAN_MOTION_DDOT":0},{"OBJECT_NAME":"OBJECT BD","OBJECT_ID":"2025-313BD","EPOCH":"2026-03-09T15:06:44.992224","MEAN_MOTION":15.3000236,"ECCENTRICITY":0.00072867,"INCLINATION":97.397,"RA_OF_ASC_NODE":145.285,"ARG_OF_PERICENTER":333.4514,"MEAN_ANOMALY":26.6352,"EPHEMERIS_TYPE":0,"CLASSIFICATION_TYPE":"U","NORAD_CAT_ID":67299,"ELEMENT_SET_NO":999,"REV_AT_EPOCH":1083,"BSTAR":0.0027633805,"MEAN_MOTION_DOT":0.0008101,"MEAN_MOTION_DDOT":0}]
